NORAD_CAT_ID,OBJECT_NAME,OBJECT_TYPE,EPOCH,MEAN_MOTION,ECCENTRICITY,INCLINATION,RA_OF_ASC_NODE,ARG_OF_PERICENTER,MEAN_ANOMALY,BSTAR,MEAN_MOTION_DOT,MEAN_MOTION_DDOT,TLE_LINE0,TLE_LINE1,TLE_LINE2,SEMIMAJOR_AXIS,PERIOD,APOGEE,PERIGEE,DECAYED
54054.0,STARLINK-5163,PAYLOAD,2023-05-20 15:04:19,15.08851367,0.0001097,53.2156,261.4396,92.2669,267.8449,0.00017405,2.484e-05,0.0,0 STARLINK-5163,1 54054U 22136D   23140.62800365  .00002484  00000-0  17405-3 0  9990,2 54054  53.2156 261.4396 0001097  92.2669 267.8449 15.08851367 32722,6917.846,95.437,540.47,538.952,0.0
54054.0,STARLINK-5163,PAYLOAD,2023-05-21 00:36:38,15.08842744,0.0001069,53.2167,259.6535,91.3351,268.7764,9.6096e-05,1.242e-05,0.0,0 STARLINK-5163,1 54054U 22136D   23141.02544986  .00001242  00000-0  96096-4 0  9994,2 54054  53.2167 259.6535 0001069  91.3351 268.7764 15.08842744 32780,6917.872,95.437,540.477,538.997,0.0
54054.0,STARLINK-5163,PAYLOAD,2023-05-21 11:44:21,15.08830622,9.94e-05,53.2154,257.5752,99.7252,260.3853,-4.2806e-06,-3.56e-06,0.0,0 STARLINK-5163,1 54054U 22136D   23141.48914091 -.00000356  00000-0 -42806-5 0  9990,2 54054  53.2154 257.5752 0000994  99.7252 260.3853 15.08830622 32376,6917.909,95.438,540.462,539.086,0.0
54054.0,STARLINK-5163,PAYLOAD,2023-05-21 13:19:44,15.08831335,0.0001038,53.2156,257.2785,101.6973,258.4135,1.0882e-05,-1.15e-06,0.0,0 STARLINK-5163,1 54054U 22136D   23141.55538025 -.00000115  00000-0  10882-4 0  9997,2 54054  53.2156 257.2785 0001038 101.6973 258.4135 15.08831335 32861,6917.907,95.438,540.49,539.054,0.0
54054.0,STARLINK-5163,PAYLOAD,2023-05-22 00:27:26,15.0884261,0.0001031,53.2158,255.1972,90.7499,269.3611,-1.6508e-06,-3.14e-06,0.0,0 STARLINK-5163,1 54054U 22136D   23142.01905596 -.00000314  00000-0 -16508-5 0  9994,2 54054  53.2158 255.1972 0001031  90.7499 269.3611 15.08842610 32938,6917.872,95.437,540.451,539.024,0.0
54054.0,STARLINK-5163,PAYLOAD,2023-05-22 09:59:45,15.08835724,0.0001106,53.2157,253.4122,90.6341,269.4777,-5.6539e-05,-1.187e-05,0.0,0 STARLINK-5163,1 54054U 22136D   23142.41650218 -.00001187  00000-0 -56539-4 0  9992,2 54054  53.2157 253.4122 0001106  90.6341 269.4777 15.08835724 32991,6917.893,95.438,540.524,538.993,0.0
54054.0,STARLINK-5163,PAYLOAD,2023-05-22 14:45:54,15.08840287,0.0001078,53.2157,252.5199,86.9361,273.1754,-2.0534e-05,-6.15e-06,0.0,0 STARLINK-5163,1 54054U 22136D   23142.61521832 -.00000615  00000-0 -20534-4 0  9994,2 54054  53.2157 252.5199 0001078  86.9361 273.1754 15.08840287 32541,6917.88,95.438,540.49,538.999,0.0
54054.0,STARLINK-5163,PAYLOAD,2023-05-23 11:25:56,15.08820868,8.01e-05,53.216,248.6549,103.8899,256.2183,0.00019279,2.78e-05,0.0,0 STARLINK-5163,1 54054U 22136D   23143.47634780  .00002780  00000-0  19279-3 0  9992,2 54054  53.2160 248.6549 0000801 103.8899 256.2183 15.08820868 33157,6917.939,95.439,540.358,539.25,0.0
54054.0,STARLINK-5163,PAYLOAD,2023-05-23 14:36:42,15.08833279,0.0001096,53.2158,248.0592,88.122,271.9898,9.5053e-05,1.225e-05,0.0,0 STARLINK-5163,1 54054U 22136D   23143.60882369  .00001225  00000-0  95053-4 0  9993,2 54054  53.2158 248.0592 0001096  88.1220 271.9898 15.08833279 33175,6917.901,95.438,540.524,539.008,0.0
54054.0,STARLINK-5163,PAYLOAD,2023-05-24 14:27:28,15.08843372,0.000105,53.2162,243.5984,86.866,273.2452,0.00011035,1.469e-05,0.0,0 STARLINK-5163,1 54054U 22136D   23144.60241818  .00001469  00000-0  11035-3 0  9999,2 54054  53.2162 243.5984 0001050  86.8660 273.2452 15.08843372 33321,6917.87,95.437,540.461,539.009,0.0
54054.0,STARLINK-5163,PAYLOAD,2023-05-25 23:50:34,15.08843016,0.0001055,53.2155,237.3527,92.2852,267.8261,5.7152e-05,6.22e-06,0.0,0 STARLINK-5163,1 54054U 22136D   23145.99345877  .00000622  00000-0  57152-4 0  9993,2 54054  53.2155 237.3527 0001055  92.2852 267.8261 15.08843016 33531,6917.871,95.437,540.466,539.006,0.0
54054.0,STARLINK-5163,PAYLOAD,2023-05-26 12:33:39,15.08846563,0.000112,53.216,234.9741,103.3661,256.7456,-1.0342e-06,-3.04e-06,0.0,0 STARLINK-5163,1 54054U 22136D   23146.52337738 -.00000304  00000-0 -10342-5 0  9990,2 54054  53.2160 234.9741 0001120 103.3661 256.7456 15.08846563 33132,6917.86,95.437,540.5,538.951,0.0
54054.0,STARLINK-5163,PAYLOAD,2023-05-27 10:49:04,15.08836238,0.0001218,53.2168,230.8118,94.7415,265.3716,-6.9756e-06,-3.99e-06,0.0,0 STARLINK-5163,1 54054U 22136D   23147.45074389 -.00000399  00000-0 -69756-5 0  9990,2 54054  53.2168 230.8118 0001218  94.7415 265.3716 15.08836238 33752,6917.892,95.438,540.599,538.914,0.0
54054.0,STARLINK-5163,PAYLOAD,2023-05-27 12:24:27,15.08837951,0.0001159,53.2165,230.5146,96.5108,263.6016,8.6905e-06,-1.5e-06,0.0,0 STARLINK-5163,1 54054U 22136D   23147.51698222 -.00000150  00000-0  86905-5 0  9994,2 54054  53.2165 230.5146 0001159  96.5108 263.6016 15.08837951 33285,6917.887,95.438,540.553,538.95,0.0
54054.0,STARLINK-5163,PAYLOAD,2023-05-28 05:53:41,15.08835708,0.0001151,53.2163,227.2435,95.1069,265.0055,9.5275e-06,-1.36e-06,0.0,0 STARLINK-5163,1 54054U 22136D   23148.24562491 -.00000136  00000-0  95275-5 0  9997,2 54054  53.2163 227.2435 0001151  95.1069 265.0055 15.08835708 33399,6917.894,95.438,540.555,538.962,0.0
54054.0,STARLINK-5163,PAYLOAD,2023-05-28 12:15:14,15.08839829,0.0001083,53.2157,226.0536,93.0873,267.0243,2.6392e-05,1.32e-06,0.0,0 STARLINK-5163,1 54054U 22136D   23148.51058218  .00000132  00000-0  26392-4 0  9992,2 54054  53.2157 226.0536 0001083  93.0873 267.0243 15.08839829 33912,6917.881,95.438,540.495,538.997,0.0
54054.0,STARLINK-5163,PAYLOAD,2023-05-28 21:47:33,15.08838439,0.0001085,53.2156,224.27,94.321,265.7906,4.9009e-05,4.92e-06,0.0,0 STARLINK-5163,1 54054U 22136D   23148.90802255  .00000492  00000-0  49009-4 0  9992,2 54054  53.2156 224.2700 0001085  94.3210 265.7906 15.08838439 33495,6917.885,95.438,540.501,539.0,0.0
54054.0,STARLINK-5163,PAYLOAD,2023-05-29 10:30:38,15.08839168,0.0001079,53.2154,221.8911,94.1638,265.9477,6.8739e-05,8.06e-06,0.0,0 STARLINK-5163,1 54054U 22136D   23149.43794192  .00000806  00000-0  68739-4 0  9991,2 54054  53.2154 221.8911 0001079  94.1638 265.9477 15.08839168 33579,6917.883,95.438,540.494,539.001,0.0
54054.0,STARLINK-5163,PAYLOAD,2023-05-29 21:38:20,15.08837598,0.0001069,53.2152,219.8097,93.7983,266.3131,4.2242e-05,3.85e-06,0.0,0 STARLINK-5163,1 54054U 22136D   23149.90162407  .00000385  00000-0  42242-4 0  9994,2 54054  53.2152 219.8097 0001069  93.7983 266.3131 15.08837598 33641,6917.888,95.438,540.492,539.013,0.0
54054.0,STARLINK-5163,PAYLOAD,2023-05-30 08:46:02,15.08831617,0.0001108,53.2151,217.7279,92.4429,267.669,9.0531e-06,-1.44e-06,0.0,0 STARLINK-5163,1 54054U 22136D   23150.36531041 -.00000144  00000-0  90531-5 0  9999,2 54054  53.2151 217.7279 0001108  92.4429 267.6690 15.08831617 34195,6917.906,95.438,540.538,539.005,0.0
54054.0,STARLINK-5163,PAYLOAD,2023-05-30 13:32:12,15.08835745,0.0001083,53.2151,216.8356,90.3013,269.8103,9.0831e-06,-1.43e-06,0.0,0 STARLINK-5163,1 54054U 22136D   23150.56402844 -.00000143  00000-0  90831-5 0  9991,2 54054  53.2151 216.8356 0001083  90.3013 269.8103 15.08835745 33748,6917.893,95.438,540.508,539.009,0.0
54054.0,STARLINK-5163,PAYLOAD,2023-05-30 21:29:07,15.0884265,0.0001146,53.216,215.3491,93.2479,266.8644,6.4383e-05,7.37e-06,0.0,0 STARLINK-5163,1 54054U 22136D   23150.89522221  .00000737  00000-0  64383-4 0  9999,2 54054  53.2160 215.3491 0001146  93.2479 266.8644 15.08842650 33795,6917.872,95.437,540.53,538.945,0.0
54054.0,STARLINK-5163,PAYLOAD,2023-05-31 03:50:39,15.08845063,0.0001145,53.2157,214.1597,93.7328,266.3795,5.8072e-05,6.37e-06,0.0,0 STARLINK-5163,1 54054U 22136D   23151.16018058  .00000637  00000-0  58072-4 0  9995,2 54054  53.2157 214.1597 0001145  93.7328 266.3795 15.08845063 34314,6917.865,95.437,540.522,538.938,0.0
54054.0,STARLINK-5163,PAYLOAD,2023-05-31 10:12:10,15.08858289,0.0001063,53.2154,212.9696,93.8721,266.2393,0.00015933,2.25e-05,0.0,0 STARLINK-5163,1 54054U 22136D   23151.42512599  .00002250  00000-0  15933-3 0  9994,2 54054  53.2154 212.9696 0001063  93.8721 266.2393 15.08858289 34355,6917.824,95.436,540.425,538.954,0.0
54054.0,STARLINK-5163,PAYLOAD,2023-05-31 11:47:33,15.08860085,0.00011,53.2156,212.6722,93.2801,266.8317,0.00017298,2.468e-05,0.0,0 STARLINK-5163,1 54054U 22136D   23151.49136401  .00002468  00000-0  17298-3 0  9992,2 54054  53.2156 212.6722 0001100  93.2801 266.8317 15.08860085 33885,6917.819,95.436,540.445,538.923,0.0
54054.0,STARLINK-5163,PAYLOAD,2023-05-31 21:19:53,15.08845444,0.0001303,53.217,210.8865,83.6555,276.4586,7.3427e-05,8.81e-06,0.0,0 STARLINK-5163,1 54054U 22136D   23151.88881462  .00000881  00000-0  73427-4 0  9993,2 54054  53.2170 210.8865 0001303  83.6555 276.4586 15.08845444 33947,6917.864,95.437,540.63,538.827,0.0
54054.0,STARLINK-5163,PAYLOAD,2023-06-01 10:02:59,15.0883891,0.0001212,53.2159,208.5069,110.3624,249.7499,2.6898e-06,-2.45e-06,0.0,0 STARLINK-5163,1 54054U 22136D   23152.41874131 -.00000245  00000-0  26898-5 0  9994,2 54054  53.2159 208.5069 0001212 110.3624 249.7499 15.08838910 34024,6917.884,95.438,540.587,538.91,0.0
54054.0,STARLINK-5163,PAYLOAD,2023-06-01 21:10:41,15.08837432,0.000121,53.2148,206.4272,88.1846,271.9285,-1.002e-05,-4.47e-06,0.0,0 STARLINK-5163,1 54054U 22136D   23152.88242431 -.00000447  00000-0 -10020-4 0  9991,2 54054  53.2148 206.4272 0001210  88.1846 271.9285 15.08837432 34579,6917.888,95.438,540.59,538.916,0.0
54054.0,STARLINK-5163,PAYLOAD,2023-06-02 09:53:46,15.08846533,0.0001198,53.2153,204.047,97.9998,262.113,-0.00011189,-2.068e-05,0.0,0 STARLINK-5163,1 54054U 22136D   23153.41234111 -.00002068  00000-0 -11189-3 0  9994,2 54054  53.2153 204.0470 0001198  97.9998 262.1130 15.08846533 34179,6917.86,95.437,540.554,538.897,0.0
54054.0,STARLINK-5163,PAYLOAD,2023-06-03 03:23:01,15.08831134,0.0001483,53.2152,200.7775,83.5178,276.5983,9.3343e-05,1.198e-05,0.0,0 STARLINK-5163,1 54054U 22136D   23154.14098687  .00001198  00000-0  93343-4 0  9995,2 54054  53.2152 200.7775 0001483  83.5178 276.5983 15.08831134 34768,6917.907,95.438,540.798,538.747,0.0
